{
  "type": "FeatureCollection",
  "features": [
    {
      "type": "Feature",
      "properties": {
        "norad_id": 43213,
        "name": "FENGYUN 1C DEB",
        "group": "fengyun-1c-debris",
        "lat": 43.49844301635279,
        "lon": 35.67297670315946,
        "alt_km": 844.5983574872225,
        "timestamp": "2025-12-05T14:45:15.589471+00:00",
        "meta_object_name": "FENGYUN 1C DEB",
        "meta_object_id": "1999-025EYM",
        "meta_epoch": "2025-12-03T03:30:49.973472",
        "meta_mean_motion": 14.23745393,
        "meta_eccentricity": 0.00540559,
        "meta_inclination": 98.7343,
        "meta_ra_of_asc_node": 41.6102,
        "meta_arg_of_pericenter": 254.7571,
        "meta_mean_anomaly": 104.7627,
        "meta_ephemeris_type": 0,
        "meta_classification_type": "U",
        "meta_norad_cat_id": 43213,
        "meta_element_set_no": 999,
        "meta_rev_at_epoch": 40236,
        "meta_bstar": 0.0020431704,
        "meta_mean_motion_dot": 4.697e-05,
        "meta_mean_motion_ddot": 0,
        "tle_line1": "1 43213U 99025EYM 25337.14641173  .00004697  00000+0  20432-2 0  9993",
        "tle_line2": "2 43213  98.7343  41.6102 0054055 254.7571 104.7627 14.23745393402366"
      },
      "geometry": {
        "type": "Point",
        "coordinates": [
          35.67297670315946,
          43.49844301635279
        ]
      }
    },
    {
      "type": "Feature",
      "properties": {
        "norad_id": 43214,
        "name": "FENGYUN 1C DEB",
        "group": "fengyun-1c-debris",
        "lat": -36.50532352570894,
        "lon": 50.90458662710111,
        "alt_km": 808.103724026425,
        "timestamp": "2025-12-05T14:45:15.589481+00:00",
        "meta_object_name": "FENGYUN 1C DEB",
        "meta_object_id": "1999-025EYN",
        "meta_epoch": "2025-12-04T03:30:56.209824",
        "meta_mean_motion": 14.24032303,
        "meta_eccentricity": 0.00549129,
        "meta_inclination": 98.7368,
        "meta_ra_of_asc_node": 42.9105,
        "meta_arg_of_pericenter": 251.5013,
        "meta_mean_anomaly": 108.0193,
        "meta_ephemeris_type": 0,
        "meta_classification_type": "U",
        "meta_norad_cat_id": 43214,
        "meta_element_set_no": 999,
        "meta_rev_at_epoch": 40281,
        "meta_bstar": 0.0032126966,
        "meta_mean_motion_dot": 7.459e-05,
        "meta_mean_motion_ddot": 0,
        "tle_line1": "1 43214U 99025EYN 25338.14648391  .00007459  00000+0  32127-2 0  9997",
        "tle_line2": "2 43214  98.7368  42.9105 0054912 251.5013 108.0193 14.24032303402815"
      },
      "geometry": {
        "type": "Point",
        "coordinates": [
          50.90458662710111,
          -36.50532352570894
        ]
      }
    },
    {
      "type": "Feature",
      "properties": {
        "norad_id": 43358,
        "name": "FENGYUN 1C DEB",
        "group": "fengyun-1c-debris",
        "lat": 44.7766270452343,
        "lon": 91.90684249380611,
        "alt_km": 1378.1512561574227,
        "timestamp": "2025-12-05T14:45:15.589491+00:00",
        "meta_object_name": "FENGYUN 1C DEB",
        "meta_object_id": "1999-025EYP",
        "meta_epoch": "2025-12-04T06:15:49.849632",
        "meta_mean_motion": 13.40320131,
        "meta_eccentricity": 0.036748,
        "meta_inclination": 98.6876,
        "meta_ra_of_asc_node": 99.4679,
        "meta_arg_of_pericenter": 223.9716,
        "meta_mean_anomaly": 133.1635,
        "meta_ephemeris_type": 0,
        "meta_classification_type": "U",
        "meta_norad_cat_id": 43358,
        "meta_element_set_no": 999,
        "meta_rev_at_epoch": 53617,
        "meta_bstar": 0.0045811,
        "meta_mean_motion_dot": 3.685e-05,
        "meta_mean_motion_ddot": 0,
        "tle_line1": "1 43358U 99025EYP 25338.26099363  .00003685  00000+0  45811-2 0  9999",
        "tle_line2": "2 43358  98.6876  99.4679 0367480 223.9716 133.1635 13.40320131536173"
      },
      "geometry": {
        "type": "Point",
        "coordinates": [
          91.90684249380611,
          44.7766270452343
        ]
      }
    },
    {
      "type": "Feature",
      "properties": {
        "norad_id": 43359,
        "name": "FENGYUN 1C DEB",
        "group": "fengyun-1c-debris",
        "lat": -65.90726095050232,
        "lon": -141.4902277723852,
        "alt_km": 867.6660925604692,
        "timestamp": "2025-12-05T14:45:15.589502+00:00",
        "meta_object_name": "FENGYUN 1C DEB",
        "meta_object_id": "1999-025EYQ",
        "meta_epoch": "2025-12-03T04:13:15.477312",
        "meta_mean_motion": 14.23022125,
        "meta_eccentricity": 0.00741146,
        "meta_inclination": 99.054,
        "meta_ra_of_asc_node": 56.8934,
        "meta_arg_of_pericenter": 43.17,
        "meta_mean_anomaly": 317.5255,
        "meta_ephemeris_type": 0,
        "meta_classification_type": "U",
        "meta_norad_cat_id": 43359,
        "meta_element_set_no": 999,
        "meta_rev_at_epoch": 47613,
        "meta_bstar": 0.0025639007,
        "meta_mean_motion_dot": 5.9e-05,
        "meta_mean_motion_ddot": 0,
        "tle_line1": "1 43359U 99025EYQ 25337.17587358  .00005900  00000+0  25639-2 0  9993",
        "tle_line2": "2 43359  99.0540  56.8934 0074114  43.1700 317.5255 14.23022125476131"
      },
      "geometry": {
        "type": "Point",
        "coordinates": [
          -141.4902277723852,
          -65.90726095050232
        ]
      }
    },
    {
      "type": "Feature",
      "properties": {
        "norad_id": 45526,
        "name": "FENGYUN 1C DEB",
        "group": "fengyun-1c-debris",
        "lat": -69.19504625751786,
        "lon": 75.72921644133619,
        "alt_km": 786.0469164573587,
        "timestamp": "2025-12-05T14:45:15.589512+00:00",
        "meta_object_name": "FENGYUN 1C DEB",
        "meta_object_id": "1999-025EYR",
        "meta_epoch": "2025-12-03T04:08:22.721280",
        "meta_mean_motion": 14.25804851,
        "meta_eccentricity": 0.00538527,
        "meta_inclination": 98.7653,
        "meta_ra_of_asc_node": 49.33,
        "meta_arg_of_pericenter": 249.8754,
        "meta_mean_anomaly": 109.6626,
        "meta_ephemeris_type": 0,
        "meta_classification_type": "U",
        "meta_norad_cat_id": 45526,
        "meta_element_set_no": 999,
        "meta_rev_at_epoch": 43240,
        "meta_bstar": 0.0024328402,
        "meta_mean_motion_dot": 5.831e-05,
        "meta_mean_motion_ddot": 0,
        "tle_line1": "1 45526U 99025EYR 25337.17248520  .00005831  00000+0  24328-2 0  9993",
        "tle_line2": "2 45526  98.7653  49.3300 0053852 249.8754 109.6626 14.25804851432404"
      },
      "geometry": {
        "type": "Point",
        "coordinates": [
          75.72921644133619,
          -69.19504625751786
        ]
      }
    },
    {
      "type": "Feature",
      "properties": {
        "norad_id": 45527,
        "name": "FENGYUN 1C DEB",
        "group": "fengyun-1c-debris",
        "lat": -27.416331040885513,
        "lon": 50.851433126869054,
        "alt_km": 813.4575801552364,
        "timestamp": "2025-12-05T14:45:15.589522+00:00",
        "meta_object_name": "FENGYUN 1C DEB",
        "meta_object_id": "1999-025EYS",
        "meta_epoch": "2025-12-03T03:52:44.018112",
        "meta_mean_motion": 14.24385911,
        "meta_eccentricity": 0.00544277,
        "meta_inclination": 98.7404,
        "meta_ra_of_asc_node": 43.8343,
        "meta_arg_of_pericenter": 253.1442,
        "meta_mean_anomaly": 106.3763,
        "meta_ephemeris_type": 0,
        "meta_classification_type": "U",
        "meta_norad_cat_id": 45527,
        "meta_element_set_no": 999,
        "meta_rev_at_epoch": 39443,
        "meta_bstar": 0.0021614985,
        "meta_mean_motion_dot": 5.035e-05,
        "meta_mean_motion_ddot": 0,
        "tle_line1": "1 45527U 99025EYS 25337.16162058  .00005035  00000+0  21615-2 0  9996",
        "tle_line2": "2 45527  98.7404  43.8343 0054427 253.1442 106.3763 14.24385911394432"
      },
      "geometry": {
        "type": "Point",
        "coordinates": [
          50.851433126869054,
          -27.416331040885513
        ]
      }
    },
    {
      "type": "Feature",
      "properties": {
        "norad_id": 46440,
        "name": "FENGYUN 1C DEB",
        "group": "fengyun-1c-debris",
        "lat": 70.28288144049975,
        "lon": -18.152504183594257,
        "alt_km": 801.0481703991409,
        "timestamp": "2025-12-05T14:45:15.589532+00:00",
        "meta_object_name": "FENGYUN 1C DEB",
        "meta_object_id": "1999-025EYV",
        "meta_epoch": "2025-11-30T21:42:54.078912",
        "meta_mean_motion": 14.20290607,
        "meta_eccentricity": 0.0175806,
        "meta_inclination": 98.5947,
        "meta_ra_of_asc_node": 2.2289,
        "meta_arg_of_pericenter": 169.3708,
        "meta_mean_anomaly": 316.1091,
        "meta_ephemeris_type": 0,
        "meta_classification_type": "U",
        "meta_norad_cat_id": 46440,
        "meta_element_set_no": 999,
        "meta_rev_at_epoch": 62201,
        "meta_bstar": 0.00034066806,
        "meta_mean_motion_dot": 8.08e-06,
        "meta_mean_motion_ddot": 0,
        "tle_line1": "1 46440U 99025EYV 25334.90479258  .00000808  00000+0  34067-3 0  9992",
        "tle_line2": "2 46440  98.5947   2.2289 0175806 169.3708 316.1091 14.20290607622019"
      },
      "geometry": {
        "type": "Point",
        "coordinates": [
          -18.152504183594257,
          70.28288144049975
        ]
      }
    }
  ]
}